{"type": "FeatureCollection", "features": [ {"type": "Feature", "properties": {"norad_id": 66845, "name": "STARLINK-36068", "group": "last-30-days", "lat": 29.699328957224495, "lon": 6.194847503813905, "alt_km": 330.9240814342438, "timestamp": "2025-12-12T22:42:11.307840+00:00", "meta": {"OBJECT_NAME": "STARLINK-36068", "OBJECT_ID": "2025-280AA", "EPOCH": "2025-12-12T06:00:00.999648", "MEAN_MOTION": 15.82330461, "ECCENTRICITY": 0.00035895, "INCLINATION": 69.991, "RA_OF_ASC_NODE": 200.1797, "ARG_OF_PERICENTER": 272.6049, "MEAN_ANOMALY": 235.8796, "EPHEMERIS_TYPE": 0, "CLASSIFICATION_TYPE": "U", "NORAD_CAT_ID": 66845, "ELEMENT_SET_NO": 999, "REV_AT_EPOCH": 282, "BSTAR": -0.010352329, "MEAN_MOTION_DOT": -0.01880078, "MEAN_MOTION_DDOT": 0}, "tle": {"line1": "1 66845U 25280AA  25346.25001157 -.01880078  00000+0 -10352-1 0  9992", "line2": "2 66845  69.9910 200.1797 0003589 272.6049 235.8796 15.82330461  2821"}}, "geometry": {"type": "Point", "coordinates": [6.194847503813905, 29.699328957224495]}}, {"type": "Feature", "properties": {"norad_id": 66846, "name": "STARLINK-36055", "group": "last-30-days", "lat": 33.07898488448761, "lon": 4.464440915394764, "alt_km": 330.7380818037509, "timestamp": "2025-12-12T22:42:11.307851+00:00", "meta": {"OBJECT_NAME": "STARLINK-36055", "OBJECT_ID": "2025-280AB", "EPOCH": "2025-12-12T06:00:00.999648", "MEAN_MOTION": 15.82274196, "ECCENTRICITY": 0.00037133, "INCLINATION": 69.9912, "RA_OF_ASC_NODE": 200.1837, "ARG_OF_PERICENTER": 274.0895, "MEAN_ANOMALY": 230.8426, "EPHEMERIS_TYPE": 0, "CLASSIFICATION_TYPE": "U", "NORAD_CAT_ID": 66846, "ELEMENT_SET_NO": 999, "REV_AT_EPOCH": 282, "BSTAR": -0.010356191, "MEAN_MOTION_DOT": -0.01876488, "MEAN_MOTION_DDOT": 0}, "tle": {"line1": "1 66846U 25280AB  25346.25001157 -.01876488  00000+0 -10356-1 0  9997", "line2": "2 66846  69.9912 200.1837 0003713 274.0895 230.8426 15.82274196  2820"}}, "geometry": {"type": "Point", "coordinates": [4.464440915394764, 33.07898488448761]}}, {"type": "Feature", "properties": {"norad_id": 66847, "name": "STARLINK-36061", "group": "last-30-days", "lat": 31.419876618938485, "lon": 5.331377245772858, "alt_km": 330.82808491973265, "timestamp": "2025-12-12T22:42:11.307862+00:00", "meta": {"OBJECT_NAME": "STARLINK-36061", "OBJECT_ID": "2025-280AC", "EPOCH": "2025-12-12T06:00:00.999648", "MEAN_MOTION": 15.82305246, "ECCENTRICITY": 0.00036704, "INCLINATION": 69.9911, "RA_OF_ASC_NODE": 200.1821, "ARG_OF_PERICENTER": 273.4865, "MEAN_ANOMALY": 233.1828, "EPHEMERIS_TYPE": 0, "CLASSIFICATION_TYPE": "U", "NORAD_CAT_ID": 66847, "ELEMENT_SET_NO": 999, "REV_AT_EPOCH": 277, "BSTAR": -0.010348319, "MEAN_MOTION_DOT": -0.01877589, "MEAN_MOTION_DDOT": 0}, "tle": {"line1": "1 66847U 25280AC  25346.25001157 -.01877589  00000+0 -10348-1 0  9992", "line2": "2 66847  69.9911 200.1821 0003670 273.4865 233.1828 15.82305246  2772"}}, "geometry": {"type": "Point", "coordinates": [5.331377245772858, 31.419876618938485]}}, {"type": "Feature", "properties": {"norad_id": 66848, "name": "STARLINK-36091", "group": "last-30-days", "lat": -40.214240119348965, "lon": 6.250803538459931, "alt_km": 303.26538462573626, "timestamp": "2025-12-12T22:42:11.307871+00:00", "meta": {"OBJECT_NAME": "STARLINK-36091", "OBJECT_ID": "2025-281A", "EPOCH": "2025-12-12T06:00:00.999648", "MEAN_MOTION": 15.91865414, "ECCENTRICITY": 0.00016757, "INCLINATION": 43.0012, "RA_OF_ASC_NODE": 125.4386, "ARG_OF_PERICENTER": 268.5398, "MEAN_ANOMALY": 311.4013, "EPHEMERIS_TYPE": 0, "CLASSIFICATION_TYPE": "U", "NORAD_CAT_ID": 66848, "ELEMENT_SET_NO": 999, "REV_AT_EPOCH": 132, "BSTAR": -0.0033420994, "MEAN_MOTION_DOT": -0.01141399, "MEAN_MOTION_DDOT": 0.00038428166}, "tle": {"line1": "1 66848U 25281A   25346.25001157 -.01141399  38428-3 -33421-2 0  9994", "line2": "2 66848  43.0012 125.4386 0001675 268.5398 311.4013 15.91865414  1326"}}, "geometry": {"type": "Point", "coordinates": [6.250803538459931, -40.214240119348965]}}, {"type": "Feature", "properties": {"norad_id": 66849, "name": "STARLINK-36102", "group": "last-30-days", "lat": -40.82162183724085, "lon": 9.078575390013912, "alt_km": 303.2707871736684, "timestamp": "2025-12-12T22:42:11.307882+00:00", "meta": {"OBJECT_NAME": "STARLINK-36102", "OBJECT_ID": "2025-281B", "EPOCH": "2025-12-12T06:00:00.999648", "MEAN_MOTION": 15.91906176, "ECCENTRICITY": 0.00015607, "INCLINATION": 43.0014, "RA_OF_ASC_NODE": 125.4326, "ARG_OF_PERICENTER": 270.3518, "MEAN_ANOMALY": 311.7384, "EPHEMERIS_TYPE": 0, "CLASSIFICATION_TYPE": "U", "NORAD_CAT_ID": 66849, "ELEMENT_SET_NO": 999, "REV_AT_EPOCH": 132, "BSTAR": -0.0033532152, "MEAN_MOTION_DOT": -0.01147544, "MEAN_MOTION_DDOT": 0.00038822471}, "tle": {"line1": "1 66849U 25281B   25346.25001157 -.01147544  38822-3 -33532-2 0  9994", "line2": "2 66849  43.0014 125.4326 0001560 270.3518 311.7384 15.91906176  1326"}}, "geometry": {"type": "Point", "coordinates": [9.078575390013912, -40.82162183724085]}}, {"type": "Feature", "properties": {"norad_id": 66850, "name": "STARLINK-36105", "group": "last-30-days", "lat": -41.52330592270512, "lon": 12.94141389858727, "alt_km": 303.17218266192594, "timestamp": "2025-12-12T22:42:11.307892+00:00", "meta": {"OBJECT_NAME": "STARLINK-36105", "OBJECT_ID": "2025-281C", "EPOCH": "2025-12-12T06:00:00.999648", "MEAN_MOTION": 15.91957782, "ECCENTRICITY": 0.00014912, "INCLINATION": 43.0012, "RA_OF_ASC_NODE": 125.4257, "ARG_OF_PERICENTER": 266.2485, "MEAN_ANOMALY": 318.7227, "EPHEMERIS_TYPE": 0, "CLASSIFICATION_TYPE": "U", "NORAD_CAT_ID": 66850, "ELEMENT_SET_NO": 999, "REV_AT_EPOCH": 132, "BSTAR": -0.003367103, "MEAN_MOTION_DOT": -0.01155307, "MEAN_MOTION_DDOT": 0.00039323538}, "tle": {"line1": "1 66850U 25281C   25346.25001157 -.01155307  39324-3 -33671-2 0  9994", "line2": "2 66850  43.0012 125.4257 0001491 266.2485 318.7227 15.91957782  1321"}}, "geometry": {"type": "Point", "coordinates": [12.94141389858727, -41.52330592270512]}}, {"type": "Feature", "properties": {"norad_id": 66851, "name": "STARLINK-36094", "group": "last-30-days", "lat": -41.97584575068253, "lon": 15.983356090546545, "alt_km": 303.0430887979319, "timestamp": "2025-12-12T22:42:11.307902+00:00", "meta": {"OBJECT_NAME": "STARLINK-36094", "OBJECT_ID": "2025-281D", "EPOCH": "2025-12-12T06:00:00.999648", "MEAN_MOTION": 15.92003928, "ECCENTRICITY": 0.00015449, "INCLINATION": 43.0012, "RA_OF_ASC_NODE": 125.4199, "ARG_OF_PERICENTER": 270.5048, "MEAN_ANOMALY": 316.6742, "EPHEMERIS_TYPE": 0, "CLASSIFICATION_TYPE": "U", "NORAD_CAT_ID": 66851, "ELEMENT_SET_NO": 999, "REV_AT_EPOCH": 132, "BSTAR": -0.0033597051, "MEAN_MOTION_DOT": -0.01155548, "MEAN_MOTION_DDOT": 0.00039356022}, "tle": {"line1": "1 66851U 25281D   25346.25001157 -.01155548  39356-3 -33597-2 0  9994", "line2": "2 66851  43.0012 125.4199 0001544 270.5048 316.6742 15.92003928  1323"}}, "geometry": {"type": "Point", "coordinates": [15.983356090546545, -41.97584575068253]}}, {"type": "Feature", "properties": {"norad_id": 66852, "name": "STARLINK-35992", "group": "last-30-days", "lat": -42.3340835720208, "lon": 18.945620567394794, "alt_km": 302.90361349208797, "timestamp": "2025-12-12T22:42:11.307911+00:00", "meta": {"OBJECT_NAME": "STARLINK-35992", "OBJECT_ID": "2025-281E", "EPOCH": "2025-12-12T06:00:00.999648", "MEAN_MOTION": 15.92050299, "ECCENTRICITY": 0.0001606, "INCLINATION": 43.0014, "RA_OF_ASC_NODE": 125.4148, "ARG_OF_PERICENTER": 271.7344, "MEAN_ANOMALY": 317.5716, "EPHEMERIS_TYPE": 0, "CLASSIFICATION_TYPE": "U", "NORAD_CAT_ID": 66852, "ELEMENT_SET_NO": 999, "REV_AT_EPOCH": 132, "BSTAR": -0.0033709939, "MEAN_MOTION_DOT": -0.01162179, "MEAN_MOTION_DDOT": 0.0003978768}, "tle": {"line1": "1 66852U 25281E   25346.25001157 -.01162179  39788-3 -33710-2 0  9999", "line2": "2 66852  43.0014 125.4148 0001606 271.7344 317.5716 15.92050299  1325"}}, "geometry": {"type": "Point", "coordinates": [18.945620567394794, -42.3340835720208]}}, {"type": "Feature", "properties": {"norad_id": 66853, "name": "STARLINK-35986", "group": "last-30-days", "lat": -42.712277911893935, "lon": 23.249881789545277, "alt_km": 302.6924469469586, "timestamp": "2025-12-12T22:42:11.307923+00:00", "meta": {"OBJECT_NAME": "STARLINK-35986", "OBJECT_ID": "2025-281F", "EPOCH": "2025-12-12T06:00:00.999648", "MEAN_MOTION": 15.92109961, "ECCENTRICITY": 0.00017001, "INCLINATION": 43.0011, "RA_OF_ASC_NODE": 125.4068, "ARG_OF_PERICENTER": 269.3425, "MEAN_ANOMALY": 323.0355, "EPHEMERIS_TYPE": 0, "CLASSIFICATION_TYPE": "U", "NORAD_CAT_ID": 66853, "ELEMENT_SET_NO": 999, "REV_AT_EPOCH": 132, "BSTAR": -0.0033927239, "MEAN_MOTION_DOT": -0.0117322, "MEAN_MOTION_DDOT": 0.00040504845}, "tle": {"line1": "1 66853U 25281F   25346.25001157 -.01173220  40505-3 -33927-2 0  9998", "line2": "2 66853  43.0011 125.4068 0001700 269.3425 323.0355 15.92109961  1324"}}, "geometry": {"type": "Point", "coordinates": [23.249881789545277, -42.712277911893935]}}, {"type": "Feature", "properties": {"norad_id": 66854, "name": "STARLINK-36087", "group": "last-30-days", "lat": -42.92143677317584, "lon": 27.40462286128925, "alt_km": 302.48896440818135, "timestamp": "2025-12-12T22:42:11.307933+00:00", "meta": {"OBJECT_NAME": "STARLINK-36087", "OBJECT_ID": "2025-281G", "EPOCH": "2025-12-12T06:00:00.999648", "MEAN_MOTION": 15.92163881, "ECCENTRICITY": 0.00017744, "INCLINATION": 43.0012, "RA_OF_ASC_NODE": 125.3992, "ARG_OF_PERICENTER": 264.2973, "MEAN_ANOMALY": 331.0129, "EPHEMERIS_TYPE": 0, "CLASSIFICATION_TYPE": "U", "NORAD_CAT_ID": 66854, "ELEMENT_SET_NO": 999, "REV_AT_EPOCH": 132, "BSTAR": -0.0033938214, "MEAN_MOTION_DOT": -0.01176882, "MEAN_MOTION_DDOT": 0.00040757673}, "tle": {"line1": "1 66854U 25281G   25346.25001157 -.01176882  40758-3 -33938-2 0  9998", "line2": "2 66854  43.0012 125.3992 0001774 264.2973 331.0129 15.92163881  1323"}}, "geometry": {"type": "Point", "coordinates": [27.40462286128925, -42.92143677317584]}}]}